NORAD_CAT_ID,OBJECT_NAME,OBJECT_TYPE,EPOCH,MEAN_MOTION,ECCENTRICITY,INCLINATION,RA_OF_ASC_NODE,ARG_OF_PERICENTER,MEAN_ANOMALY,BSTAR,MEAN_MOTION_DOT,MEAN_MOTION_DDOT,TLE_LINE0,TLE_LINE1,TLE_LINE2,SEMIMAJOR_AXIS,PERIOD,APOGEE,PERIGEE,DECAYED
52681.0,STARLINK-4068,PAYLOAD,2023-09-10 01:57:26,15.08848156,0.0001477,53.2167,276.4861,97.9656,262.1504,0.00022076,3.228e-05,0.0,0 STARLINK-4068,1 52681U 22053AB  23253.08155578  .00003228  00000-0  22076-3 0  9993,2 52681  53.2167 276.4861 0001477  97.9656 262.1504 15.08848156 73122,6917.855,95.437,540.742,538.699,0.0
52681.0,STARLINK-4068,PAYLOAD,2023-09-10 11:29:45,15.08844236,0.0001516,53.2167,274.7021,98.3708,261.7456,9.1815e-05,1.174e-05,0.0,0 STARLINK-4068,1 52681U 22053AB  23253.47899752  .00001174  00000-0  91815-4 0  9991,2 52681  53.2167 274.7021 0001516  98.3708 261.7456 15.08844236 73573,6917.867,95.437,540.781,538.684,0.0
52681.0,STARLINK-4068,PAYLOAD,2023-09-11 08:09:46,15.0883769,0.0001532,53.2169,270.8393,90.4283,269.6884,4.1132e-05,3.67e-06,0.0,0 STARLINK-4068,1 52681U 22053AB  23254.34012440  .00000367  00000-0  41132-4 0  9999,2 52681  53.2169 270.8393 0001532  90.4283 269.6884 15.08837690 73313,6917.887,95.438,540.812,538.693,0.0
52681.0,STARLINK-4068,PAYLOAD,2023-09-11 12:55:56,15.08835119,0.0001397,53.2167,269.9469,95.6263,264.4888,9.922e-05,1.291e-05,0.0,0 STARLINK-4068,1 52681U 22053AB  23254.53884482  .00001291  00000-0  99220-4 0  9991,2 52681  53.2167 269.9469 0001397  95.6263 264.4888 15.08835119 73735,6917.895,95.438,540.727,538.794,0.0
52681.0,STARLINK-4068,PAYLOAD,2023-09-12 08:00:33,15.08846855,0.0001412,53.2173,266.3773,86.4402,273.6752,0.00011253,1.504e-05,0.0,0 STARLINK-4068,1 52681U 22053AB  23255.33371704  .00001504  00000-0  11253-3 0  9994,2 52681  53.2173 266.3773 0001412  86.4402 273.6752 15.08846855 73463,6917.859,95.437,540.701,538.748,0.0
52681.0,STARLINK-4068,PAYLOAD,2023-09-12 17:32:52,15.08840525,0.0001369,53.217,264.5932,94.685,265.4299,4.1982e-05,3.8e-06,0.0,0 STARLINK-4068,1 52681U 22053AB  23255.73116271  .00000380  00000-0  41982-4 0  9998,2 52681  53.2170 264.5932 0001369  94.6850 265.4299 15.08840525 73919,6917.879,95.438,540.691,538.797,0.0
52681.0,STARLINK-4068,PAYLOAD,2023-09-13 09:26:44,15.0883652,0.0001515,53.2182,261.6197,89.379,270.7375,5.9173e-05,6.54e-06,0.0,0 STARLINK-4068,1 52681U 22053AB  23256.39356838  .00000654  00000-0  59173-4 0  9991,2 52681  53.2182 261.6197 0001515  89.3790 270.7375 15.08836520 73622,6917.891,95.438,540.804,538.708,0.0
52681.0,STARLINK-4068,PAYLOAD,2023-09-13 12:37:30,15.08839973,0.0001469,53.2174,261.0251,88.3879,271.7282,9.3126e-05,1.194e-05,0.0,0 STARLINK-4068,1 52681U 22053AB  23256.52604520  .00001194  00000-0  93126-4 0  9996,2 52681  53.2174 261.0251 0001469  88.3879 271.7282 15.08839973 74032,6917.88,95.438,540.762,538.729,0.0
52681.0,STARLINK-4068,PAYLOAD,2023-09-13 17:23:40,15.08836498,0.000144,53.2171,260.1325,88.3121,271.8036,4.8402e-05,4.82e-06,0.0,0 STARLINK-4068,1 52681U 22053AB  23256.72476930  .00000482  00000-0  48402-4 0  9996,2 52681  53.2171 260.1325 0001440  88.3121 271.8036 15.08836498 74060,6917.891,95.438,540.752,538.76,0.0
52681.0,STARLINK-4068,PAYLOAD,2023-09-14 07:42:08,15.08838193,0.0001488,53.2177,257.4561,91.0734,269.0428,-1.3206e-05,-4.98e-06,0.0,0 STARLINK-4068,1 52681U 22053AB  23257.32093241 -.00000498  00000-0 -13206-4 0  9996,2 52681  53.2177 257.4561 0001488  91.0734 269.0428 15.08838193 74158,6917.886,95.438,540.78,538.722,0.0
52681.0,STARLINK-4068,PAYLOAD,2023-09-14 17:14:27,15.08843489,0.0001494,53.2178,255.6722,104.5541,255.5616,1.0925e-05,-1.14e-06,0.0,0 STARLINK-4068,1 52681U 22053AB  23257.71836835 -.00000114  00000-0  10925-4 0  9992,2 52681  53.2178 255.6722 0001494 104.5541 255.5616 15.08843489 73827,6917.87,95.437,540.768,538.701,0.0
52681.0,STARLINK-4068,PAYLOAD,2023-09-15 07:32:55,15.08846451,0.0001419,53.2158,252.9961,92.8187,267.2967,0.00022603,3.312e-05,0.0,0 STARLINK-4068,1 52681U 22053AB  23258.31452750  .00003312  00000-0  22603-3 0  9996,2 52681  53.2158 252.9961 0001419  92.8187 267.2967 15.08846451 74307,6917.861,95.437,540.707,538.744,0.0
52681.0,STARLINK-4068,PAYLOAD,2023-09-15 23:26:46,15.08837595,0.00014,53.2169,250.023,93.1052,267.0101,0.0001533,2.153e-05,0.0,0 STARLINK-4068,1 52681U 22053AB  23258.97693226  .00002153  00000-0  15330-3 0  9994,2 52681  53.2169 250.0230 0001400  93.1052 267.0101 15.08837595 74017,6917.888,95.438,540.721,538.784,0.0
52681.0,STARLINK-4068,PAYLOAD,2023-09-16 08:59:05,15.08846637,0.0001436,53.2159,248.2385,90.8187,269.2969,0.000209,3.04e-05,0.0,0 STARLINK-4068,1 52681U 22053AB  23259.37436837  .00003040  00000-0  20900-3 0  9997,2 52681  53.2159 248.2385 0001436  90.8187 269.2969 15.08846637 74460,6917.86,95.437,540.719,538.732,0.0
52681.0,STARLINK-4068,PAYLOAD,2023-09-17 02:28:19,15.088449,0.0001526,53.2163,244.967,91.4607,268.656,8.5747e-05,1.077e-05,0.0,0 STARLINK-4068,1 52681U 22053AB  23260.10300867  .00001077  00000-0  85747-4 0  9992,2 52681  53.2163 244.9670 0001526  91.4607 268.6560 15.08844900 74189,6917.865,95.437,540.786,538.675,0.0
52681.0,STARLINK-4068,PAYLOAD,2023-09-17 08:49:52,15.0884809,0.0001512,53.2169,243.7763,96.6166,263.4998,0.00012048,1.63e-05,0.0,0 STARLINK-4068,1 52681U 22053AB  23260.36796621  .00001630  00000-0  12048-3 0  9995,2 52681  53.2169 243.7763 0001512  96.6166 263.4998 15.08848090 74617,6917.856,95.437,540.767,538.675,0.0
52681.0,STARLINK-4068,PAYLOAD,2023-09-18 02:19:07,15.08836253,0.0001312,53.2167,240.5048,101.1549,258.9591,0.00012885,1.763e-05,0.0,0 STARLINK-4068,1 52681U 22053AB  23261.09661210  .00001763  00000-0  12885-3 0  9997,2 52681  53.2167 240.5048 0001312 101.1549 258.9591 15.08836253 74336,6917.892,95.438,540.664,538.849,0.0
52681.0,STARLINK-4068,PAYLOAD,2023-09-18 10:16:02,15.08844737,0.0001272,53.217,239.0195,92.3699,267.7439,4.6435e-05,4.51e-06,0.0,0 STARLINK-4068,1 52681U 22053AB  23261.42780832  .00000451  00000-0  46435-4 0  9998,2 52681  53.2170 239.0195 0001272  92.3699 267.7439 15.08844737 74771,6917.866,95.437,540.611,538.851,0.0
52681.0,STARLINK-4068,PAYLOAD,2023-09-19 03:45:17,15.08845957,0.0001366,53.2175,235.7477,97.4468,262.668,0.00014742,2.059e-05,0.0,0 STARLINK-4068,1 52681U 22053AB  23262.15644752  .00002059  00000-0  14742-3 0  9990,2 52681  53.2175 235.7477 0001366  97.4468 262.6680 15.08845957 74492,6917.862,95.437,540.672,538.782,0.0
52681.0,STARLINK-4068,PAYLOAD,2023-09-19 10:06:48,15.08859914,0.0001431,53.2171,234.5579,100.1212,259.9942,0.00031533,4.737e-05,0.0,0 STARLINK-4068,1 52681U 22053AB  23262.42139811  .00004737  00000-0  31533-3 0  9997,2 52681  53.2171 234.5579 0001431 100.1212 259.9942 15.08859914 74533,6917.82,95.436,540.674,538.695,0.0
52681.0,STARLINK-4068,PAYLOAD,2023-09-20 02:00:41,15.08834775,0.0001326,53.2168,231.5859,99.9094,260.2048,-6.3029e-05,-1.291e-05,0.0,0 STARLINK-4068,1 52681U 22053AB  23263.08381102 -.00001291  00000-0 -63029-4 0  9992,2 52681  53.2168 231.5859 0001326  99.9094 260.2048 15.08834775 74634,6917.896,95.438,540.679,538.844,0.0
52681.0,STARLINK-4068,PAYLOAD,2023-09-20 08:22:13,15.08836827,0.0001421,53.2177,230.3978,102.1367,257.9784,0.00019058,2.746e-05,0.0,0 STARLINK-4068,1 52681U 22053AB  23263.34877224  .00002746  00000-0  19058-3 0  9992,2 52681  53.2177 230.3978 0001421 102.1367 257.9784 15.08836827 75067,6917.89,95.438,540.738,538.772,0.0
52681.0,STARLINK-4068,PAYLOAD,2023-09-20 14:43:46,15.08830481,0.0001351,53.2174,229.2055,89.2791,270.8356,-0.00011512,-2.119e-05,0.0,0 STARLINK-4068,1 52681U 22053AB  23263.61373457 -.00002119  00000-0 -11512-3 0  9994,2 52681  53.2174 229.2055 0001351  89.2791 270.8356 15.08830481 75109,6917.909,95.438,540.709,538.84,0.0
52681.0,STARLINK-4068,PAYLOAD,2023-09-21 08:13:01,15.0883328,0.0001506,53.2168,225.9334,84.9187,275.1977,0.00022035,3.22e-05,0.0,0 STARLINK-4068,1 52681U 22053AB  23264.34237961  .00003220  00000-0  22035-3 0  9998,2 52681  53.2168 225.9334 0001506  84.9187 275.1977 15.08833280 74823,6917.901,95.438,540.808,538.724,0.0
52681.0,STARLINK-4068,PAYLOAD,2023-09-21 09:48:24,15.08836359,0.0001458,53.2166,225.6381,84.3954,275.7204,0.00055208,8.508e-05,0.0,0 STARLINK-4068,1 52681U 22053AB  23264.40862109  .00008508  00000-0  55208-3 0  9995,2 52681  53.2166 225.6381 0001458  84.3954 275.7204 15.08836359 75226,6917.892,95.438,540.765,538.748,0.0
52681.0,STARLINK-4068,PAYLOAD,2023-09-22 09:39:11,15.08861924,0.0001319,53.2162,221.1781,91.7557,268.3586,0.00088477,0.0001383,0.0,0 STARLINK-4068,1 52681U 22053AB  23265.40221477  .00013830  00000-0  88477-3 0  9991,2 52681  53.2162 221.1781 0001319  91.7557 268.3586 15.08861924 74983,6917.813,95.436,540.591,538.766,0.0
52681.0,STARLINK-4068,PAYLOAD,2023-09-23 03:08:25,15.08857125,0.0002799,53.2177,217.8982,148.2981,211.818,0.00047596,7.298e-05,0.0,0 STARLINK-4068,1 52681U 22053AB  23266.13084774  .00007298  00000-0  47596-3 0  9997,2 52681  53.2177 217.8982 0002799 148.2981 211.8180 15.08857125 75090,6917.828,95.436,541.629,537.757,0.0
52681.0,STARLINK-4068,PAYLOAD,2023-09-23 06:19:11,15.08865049,0.0001449,53.2158,217.3125,91.1862,268.9296,0.001027,0.00016106,0.0,0 STARLINK-4068,1 52681U 22053AB  23266.26333084  .00016106  00000-0  10270-2 0  9998,2 52681  53.2158 217.3125 0001449  91.1862 268.9296 15.08865049 75509,6917.804,95.436,540.671,538.666,0.0
52681.0,STARLINK-4068,PAYLOAD,2023-09-24 02:59:12,15.08845494,0.0001353,53.2153,213.4467,92.1615,267.9532,0.00075226,0.00011706,0.0,0 STARLINK-4068,1 52681U 22053AB  23267.12445366  .00011706  00000-0  75226-3 0  9995,2 52681  53.2153 213.4467 0001353  92.1615 267.9532 15.08845494 75246,6917.864,95.437,540.665,538.793,0.0
52681.0,STARLINK-4068,PAYLOAD,2023-09-24 06:09:58,15.08851742,0.00014,53.2158,212.852,86.1268,273.9884,0.0010251,0.00016069,0.0,0 STARLINK-4068,1 52681U 22053AB  23267.25693264  .00016069  00000-0  10251-2 0  9994,2 52681  53.2158 212.8520 0001400  86.1268 273.9884 15.08851742 75659,6917.844,95.437,540.678,538.741,0.0
